CORAL                   
1 67684U 98067YA  26083.92555102  .00072525  00000+0  98477-3 0  9997
2 67684  51.6305 355.3995 0012287 230.2179 129.7731 15.56874692  7163
GXIBA-1                 
1 67685U 98067YB  26083.97488157  .00040871  00000+0  63205-3 0  9998
2 67685  51.6331 355.7329 0011849 238.3998 121.5836 15.53588882  7165
UITMSAT-2               
1 67686U 98067YC  26083.76964604  .00051668  00000+0  77298-3 0  9995
2 67686  51.6329 356.6112 0008804 208.2356 151.8159 15.54430912  7136
HMU-SAT2                
1 67687U 98067YD  26083.97918550  .00039858  00000+0  62313-3 0  9997
2 67687  51.6326 355.7594 0008411 211.5179 148.5308 15.53338979  7084
LEOPARD                 
1 67688U 98067YE  26083.77524011  .00047267  00000+0  71837-3 0  9995
2 67688  51.6324 356.6479 0008637 208.8470 151.2044 15.54039220  7051
CREW DRAGON 12          
1 67796U 26031A   26083.80895787  .00009690  00000+0  18680-3 0  9997
2 67796  51.6344 357.6177 0006258 228.0573 131.9883 15.48525391558604
PROGRESS-MS 33          
1 68319U 26058A   26083.80895787  .00009690  00000+0  18680-3 0  9998
2 68319  51.6344 357.6177 0006258 228.0573 131.9883 15.48525391   114
